SAUDISAT 1C (SO-50)     
1 27607U 02058C   26165.18826926  .00000933  00000+0  12736-3 0  9995
2 27607  64.5509 138.2640 0075328 263.0278  96.2256 14.83041063264013
SAUDISAT 2              
1 28371U 04025F   26165.00663260  .00000248  00000+0  66584-4 0  9991
2 28371  98.5507 164.9063 0023711 308.4734  51.4336 14.56682374165289
SAUDISAT 3              
1 31118U 07012B   26165.13058542  .00000233  00000+0  45805-4 0  9995
2 31118  98.1455 115.5291 0013482 234.3373 125.6579 14.71424084 27295
PISAT                   
1 41784U 16059B   26164.94257177  .00000816  00000+0  14659-3 0  9998
2 41784  97.8179 165.5348 0028122 213.4292 146.5139 14.68978670519265
FLYING LAPTOP           
1 42831U 17042G   26165.18591167  .00003083  00000+0  24429-3 0  9997
2 42831  97.4668 320.8343 0019513 131.5307 228.7595 15.01127303486001
SALSAT                  
1 46495U 20068K   26165.00581426  .00008178  00000+0  28632-3 0  9997
2 46495  97.8843 167.8766 0008281 321.5879  38.4769 15.29759103314876
